{
  "norad_id": 68527,
  "name": "STARLINK-37248",
  "history": [
    {
      "epoch": "2026-04-07T02:46:52.788864Z",
      "apogee_km": 291.79722655193655,
      "perigee_km": 290.98754568446293,
      "latitude_deg": 4.428830078558297e-05,
      "longitude_deg": 129.74616784633594,
      "height_km": 292.4773827552769,
      "semi_major_axis_km": 6669.5293861182,
      "eccentricity": 6.07e-05,
      "inclination_deg": 53.1612,
      "raan_deg": 6.8635,
      "arg_perigee_deg": 246.7458,
      "mean_anomaly_deg": 113.3507,
      "mean_motion_rev_day": 15.93895984
    }
  ]
}