{"fetched_at":"2026-04-08T17:04:03Z","count":12288,"tles":[{"name":"STARLINK-37248","line1":"1 68527U 26068V   26097.11588877 -.00536755  10320-3 -14207-2 0  9997","line2":"2 68527  53.1612   6.8635 0000606 246.7458 113.3507 15.93895984  1163","category":"Starlink"}]}